#dP2022  3 17  0  0  0.00000000      97 __u+U IGS14 FIT  IAC
## 2201 345600.00000000   900.00000000 59655 0.0000000000000
+  124   C01C02C03C04C05C06C07C08C09C10C11C12C13C14C16C19C20
+        C21C22C23C24C25C26C27C28C29C30C32C33C34C35C36C37C38
+        C39C40C41C42C43C44C45C46C59C60E01E02E03E04E05E07E08
+        E10E11E12E13E14E15E18E19E21E24E25E26E27E30E31E33E34
+        E36G01G02G03G04G05G06G07G08G09G10G12G13G14G15G16G17
+        G18G19G20G21G22G23G24G25G26G27G28G29G30G31G32J01J02
+        J03J07R01R02R03R04R05R07R08R09R11R12R13R14R15R17R18
+        R19R20R21R22R24  0  0  0  0  0  0  0  0  0  0  0  0
++        15 15 15 15 14 10  9  9  9  9  8  9  8  8 10  7  7
++         7  7  7  8  7  7  7  7  7  7  7  8  8  7  7  7  8
++         8  8  8  8  8  7  7  7 16 15  4  5  4  4  4  4  4
++         4  4  4  4  5  4  4  4  4  4  4  4  4  4  4  4  5
++         4  3  3  3  3  3  3  3  3  3  3  3  4  3  4  3  3
++         3  3  3  3  3  3  3  3  3  3  4  3  0  3  3  9  9
++         9 14  7  6  6  6  6  6  6  6  9  6  6  6  6  6  6
++         7  7  6  7  6  0  0  0  0  0  0  0  0  0  0  0  0
%c M  cc GPS ccc cccc cccc cccc cccc ccccc ccccc ccccc ccccc
%c cc cc ccc ccc cccc cccc cccc cccc ccccc ccccc ccccc ccccc
%f  1.2500000  1.025000000  0.00000000000  0.000000000000000
%f  0.0000000  0.000000000  0.00000000000  0.000000000000000
%i    0    0    0    0      0      0      0      0         0
%i    0    0    0    0      0      0      0      0         0
/* INFORMATION & ANALYSIS CENTER (IAC)            FINAL DATA
/* S/V CLOCKS ARE ALIGNED TO GNSS TIME                      
/* G:C1WC2W R:C1PC2P E:C1XC5X C:C2IC6I J:C1CC2S             
/* PCV:IGS14_2196 OL/AL:FES2004  NONE     YN ORB:CoN CLK:CoN
*  2022 03 17  5 30  0.00000000
PC01 -34360.255196  24470.310095   -250.949704    -19.932025
PC02   4406.585901  41865.157560  -1254.527848    219.697265
PC03 -14666.075570  39491.349785  -1141.834706   -560.388379
PC04 -39634.064127  14421.151884     -3.096980   -316.475760
PC05  22029.389460  35908.522491   -933.678958    107.432762
PC06 -10865.053028  40276.499220  -5278.862310   -376.153734
PC07  -5189.814462  27746.021838  31341.887626    125.287014
PC08 -19706.389251  25103.648811 -27611.320791    201.498616
PC09  -4291.981721  41229.786510   6493.785512   -611.623940
PC10   3360.493823  30823.696931  28998.972545    138.663445
PC11  11121.374165  15224.830276 -20517.430324    234.132881
PC12    515.424027  27001.755560  -7003.844973    683.787608
PC13  -9946.482581  25945.453099 -31671.395502    -87.533666
PC14  22322.002674  16794.549276    452.414397    451.846670
PC16 -11274.679943  39898.375345  -6695.513236    103.458736
PC19 -24102.247333 -10196.933754  -9629.994672    885.897352
PC20 -17927.136589 -20106.935408   7246.161685   -848.502874
PC21    588.928586  18567.341937 -20808.881702   -915.623642
PC22 -16543.575924   6039.848054 -21633.203509   -961.159207
PC23  24781.175893 -12434.536293  -3143.643370   -942.777075
PC24   8853.142512  13878.291087  22515.855542   -946.968857
PC25  24553.000605   -298.806114  13228.882838   -764.742605
PC26  -9580.292310  18577.573384  18492.585746    765.028652
PC27   5386.353683 -27336.034355  -1783.179514    693.135970
PC28  14551.373190 -16392.894445 -17270.328714     44.377286
PC29 -15481.272267  -4066.955214  22852.241502    528.673208
PC30  -7454.296391 -22749.313533  14356.674312    495.290377
PC32   -626.766675 -18546.649561  20858.793694   -968.363802
PC33  24197.870179  10091.652499   9595.755922   -966.966264
PC34   8042.862231  22038.039521 -15101.322299   -446.609339
PC35 -14287.909396  16060.617777  17765.485464    185.689508
PC36 -24349.912182   -637.839842 -13605.594208   -945.490105
PC37  11104.360825 -18322.155817 -17859.440608   -940.073286
PC38 -25015.697881  26321.737819 -21502.337304    218.507056
PC39 -13176.694019  37479.657728 -13839.339194     34.873708
PC40  -8074.375106  22349.849815  34824.215313    252.934069
PC41  16902.174277  -5764.691050  21499.390561   -957.535717
PC42  17337.677113  20324.044315  -8053.003674   -938.873488
PC43  15457.801108   4874.171317 -22723.033691   -935.618856
PC44  -4534.294139  27445.043130   1937.023950    597.353657
PC45 -24697.123837  12572.714863   3384.909015    706.766368
PC46 -10384.129551 -12989.165500 -22417.635130   -221.848680
PC59 -32310.306265  27093.203421   -365.698465     -0.428861
PC60   7304.810172  41522.679075   -279.230280     -0.416764
PE01  -5315.990852 -16916.713959 -23706.787116   -598.305797
PE02   5468.305994  16905.502658  23662.896590    286.755894
PE03   7570.228934  28049.720355  -5693.381467   -538.191271
PE04 -17972.046507 -20018.022553 -12340.642247   -986.236919
PE05  -7497.451687  19738.651014 -20739.591875   -199.646803
PE07  17992.681837    -64.817314  23513.746932   -649.122902
PE08  18094.767926  19684.630857  12714.568605   -496.458267
PE10 -18568.222937    117.335406  23047.042143   -500.980371
PE11 -21688.966003  10407.602858  17226.777450   4209.899110
PE12 -12776.206296  -9856.881001  24817.068162   4709.649890
PE13  21540.906568  -9883.475432 -17735.886806    427.337342
PE14  17840.051107  21807.314113 -15508.684295  -1780.960223
PE15  12651.584504   9887.565848 -24857.691597    757.321274
PE18 -11196.598484 -19218.940174   8734.297783  -1674.955147
PE19  -5775.178527 -27914.802246   7990.955074  -1446.606219
PE21  15554.564605 -12900.061875 -21631.798183   -722.991626
PE24 -29039.187449    262.888442   5791.322828   -509.672489
PE25 -15833.079377  12777.197955  21503.092597   -567.077036
PE26  17277.868149 -24026.930135    745.067437   -921.451475
PE27  28724.341181  -1243.932098  -7008.434762   -254.930294
PE30  24147.246414  11689.717101  12471.382516   -354.899822
PE31 -24891.237978 -11044.549414 -11612.167333   -493.651990
PE33   3665.752764 -23753.258004  17294.616391   -458.499932
PE34  -3439.922207  23670.491258 -17438.833306   -507.168239
PE36 -17720.251597  23698.680847    261.457367   -346.404105
PG01 -11971.971505  21364.528134 -10103.416007    407.048665
PG02  20299.724437 -13680.730270  -9811.680278   -652.338601
PG03  -4681.492404  14279.693400 -21999.834743   -167.030103
PG04  -2135.244510  23991.190073 -11093.012334   -183.076093
PG05  20338.557222  -6835.610201  15591.226431    -74.955236
PG06  16844.673681   2108.997617 -20380.772354    234.039602
PG07   3099.593297  17308.551064  20149.392621    316.395421
PG08  -8484.414172  16685.595702  18670.474422    -60.156773
PG09   7019.042814  25584.409904   -890.974774   -349.328477
PG10 -22376.143646 -11798.173849   8714.535702   -349.345542
PG12   9076.813140 -12692.989252 -21744.200294   -186.080571
PG13  13463.591182  -8419.137250  21111.138774    278.194297
PG14  21278.606736  13107.742603   9096.244217    -94.593152
PG15   6538.438240 -18266.447813  17595.141235    -76.187035
PG16 -23346.698521   1018.161369  12777.109378   -481.546013
PG17  13153.570966  18423.614189 -13422.139365    588.242180
PG18  -2056.966439 -17227.267056  20075.896874    218.015817
PG19  14929.557076  11480.405159 -19066.574649    132.053792
PG20  25254.216017  -2890.895785   7262.181434    516.265619
PG21 -17722.606891  19255.671235   1830.372771    159.476973
PG22 -15494.118265  -8271.565417 -19574.602612    228.731454
PG23 -13384.114617 -15204.630813  17220.136198     -7.469794
PG24  13380.967417 -22124.078380  -5322.978170    267.285659
PG25  -5862.647912 -16332.169198 -20468.834839    299.383926
PG26 -26331.084013  -4455.089993   1090.238122    191.415682
PG27 -14109.253556   4641.855749  21807.142835    156.514879
PG28  24499.461783   9877.729954   1494.552307    378.756361
PG29  -3541.803806 -26177.647690  -2501.025812   -492.279296
PG30  10774.970474  11530.311884  21432.863547 999999.999999
PG31 -18959.681244   -187.262561 -18909.210847   -169.276125
PG32 -15644.415227 -14715.337158 -15609.138790    -86.343840
PJ01 -22155.481763  18703.473086 -26108.857373    194.435297
PJ02 -30260.909728  22481.703043  23849.397615     -2.025508
PJ03 -29888.180168  26553.874222  18443.978853     -1.023173
PJ07 -25381.433432  33660.304144    -26.769848     -0.004896
PR01  16640.003100   4612.376840  18787.076803      7.273533
PR02   3303.536860 -12127.276142  22253.241128    512.741415
PR03 -10608.282973 -20174.476714  11555.875641     53.236257
PR04 -18300.465320 -16923.021277  -5411.293131    132.277552
PR05 -15946.191848  -4419.894765 -19405.970395     89.503179
PR07  11097.205404  20219.820930 -10800.614363     32.734623
PR08  18420.801769  16711.031091   5668.251773    -64.064317
PR09 -15907.404973  11763.582956  16070.399165     44.760210
PR11  18346.523268   4247.807933  17217.073239     43.317401
PR12  24974.671182  -5117.807472    405.783673     17.469593
PR13  17020.280269 -11320.073024 -15276.514020    -19.550222
PR14  -1988.349101 -10945.797900 -22948.362311     75.474376
PR15 -18893.370567  -4167.408442 -16610.895342     97.491107
PR17   2380.908275 -22838.349719  11085.312506    510.172956
PR18  -6605.720615 -11111.901002  22017.032336    110.542100
PR19 -12220.198405   5086.865790  21804.697393   -181.863203
PR20 -11502.030334  21592.814953   7139.945237    -66.870275
PR21  -1740.778891  22253.208158 -12363.052821   -285.929008
PR22   6990.381465  10121.667356 -22340.237067   -171.067982
PR24  10899.522227 -22162.782085  -6349.793201     84.733210
EOF
